*******************************************************************************
Ephemeris / WWW_USER Tue Mar 11 05:34:06 2025 Pasadena, USA      / Horizons    
*******************************************************************************
Target body name: (2018 YU2)                      {source: JPL#5}
Center body name: Earth (399)                     {source: DE441}
Center-site name: Gemini South Obs., Cerro Pachon
*******************************************************************************
Start time      : A.D. 2018-Sep-29 22:51:00.0000 UT      
Stop  time      : A.D. 2018-Sep-30 10:14:00.0000 UT      
Step-size       : 1 minutes
*******************************************************************************
Target pole/equ : undefined
Target radii    : undefined                                                    
Center geodetic : 289.2634, -30.2406227, 2.71233  {E-lon(deg),Lat(deg),Alt(km)}
Center cylindric: 289.2634,5517.21435,-3194.81213 {E-lon(deg),Dxy(km),Dz(km)}
Center pole/equ : ITRF93                          {East-longitude positive}
Center radii    : 6378.137, 6378.137, 6356.752 km {Equator_a, b, pole_c}       
Target primary  : Sun
Vis. interferer : MOON (R_eq= 1737.400) km        {source: DE441}
Rel. light bend : Sun                             {source: DE441}
Rel. lght bnd GM: 1.3271E+11 km^3/s^2                                          
Small-body perts: Yes                             {source: SB441-N16}
Atmos refraction: NO (AIRLESS)
RA format       : HMS
Time format     : CAL 
Calendar mode   : Mixed Julian/Gregorian
RTS-only print  : NO       
EOP file        : eop.250310.p250606                                           
EOP coverage    : DATA-BASED 1962-JAN-20 TO 2025-MAR-10. PREDICTS-> 2025-JUN-05
Units conversion: 1 au= 149597870.700 km, c= 299792.458 km/s, 1 day= 86400.0 s 
Table cut-offs 1: Elevation (-90.0deg=NO ),Airmass (>38.000=NO), Daylight (YES)
Table cut-offs 2: Solar elongation (  0.0,180.0=NO ),Local Hour Angle( 0.0=NO )
Table cut-offs 3: RA/DEC angular rate (     0.0=NO )                           
*******************************************************************************
Initial IAU76/J2000 heliocentric ecliptic osculating elements (au, days, deg.):
  EPOCH=  2458477.5 ! 2018-Dec-25.00 (TDB)         Residual RMS= .22887        
   EC= .1533598773405833   QR= .920984914841031    TP= 2458549.1486254167      
   OM= 279.4515303175068   W=  253.4059234937716   IN= 2.850769624588425       
  Equivalent ICRF heliocentric cartesian coordinates (au, au/d):
   X=-6.842297687009524E-02  Y= 9.429126817220428E-01  Z= 4.143187104036840E-01
  VX=-1.695115058702848E-02 VY=-2.997207899955317E-03 VZ=-2.239432528215744E-03
Asteroid physical parameters (km, seconds, rotational period in hours):        
   GM= n.a.                RAD= n.a.               ROTPER= n.a.                
   H= 26.5                 G= .150                 B-V= n.a.                   
                           ALBEDO= n.a.            STYP= n.a.                  
*******************************************************************************
 Date__(UT)__HR:MN     R.A._________(ICRF)_________DEC
******************************************************
$$SOE
 2018-Sep-30 00:54     04 53 47.251866 +30 28 07.52170
 2018-Sep-30 00:55     04 53 47.355960 +30 28 07.87799
 2018-Sep-30 00:56     04 53 47.460032 +30 28 08.23436
 2018-Sep-30 00:57     04 53 47.564081 +30 28 08.59082
 2018-Sep-30 00:58     04 53 47.668108 +30 28 08.94737
 2018-Sep-30 00:59     04 53 47.772113 +30 28 09.30401
 2018-Sep-30 01:00     04 53 47.876094 +30 28 09.66073
 2018-Sep-30 01:01     04 53 47.980053 +30 28 10.01753
 2018-Sep-30 01:02     04 53 48.083989 +30 28 10.37442
 2018-Sep-30 01:03     04 53 48.187902 +30 28 10.73140
 2018-Sep-30 01:04     04 53 48.291793 +30 28 11.08845
 2018-Sep-30 01:05     04 53 48.395660 +30 28 11.44559
 2018-Sep-30 01:06     04 53 48.499505 +30 28 11.80281
 2018-Sep-30 01:07     04 53 48.603326 +30 28 12.16011
 2018-Sep-30 01:08     04 53 48.707124 +30 28 12.51750
 2018-Sep-30 01:09     04 53 48.810899 +30 28 12.87496
 2018-Sep-30 01:10     04 53 48.914651 +30 28 13.23250
 2018-Sep-30 01:11     04 53 49.018380 +30 28 13.59012
 2018-Sep-30 01:12     04 53 49.122085 +30 28 13.94781
 2018-Sep-30 01:13     04 53 49.225767 +30 28 14.30559
 2018-Sep-30 01:14     04 53 49.329425 +30 28 14.66344
 2018-Sep-30 01:15     04 53 49.433060 +30 28 15.02136
 2018-Sep-30 01:16     04 53 49.536672 +30 28 15.37936
 2018-Sep-30 01:17     04 53 49.640260 +30 28 15.73744
 2018-Sep-30 01:18     04 53 49.743824 +30 28 16.09558
 2018-Sep-30 01:19     04 53 49.847364 +30 28 16.45381
 2018-Sep-30 01:20     04 53 49.950881 +30 28 16.81210
 2018-Sep-30 01:21     04 53 50.054374 +30 28 17.17046
 2018-Sep-30 01:22     04 53 50.157843 +30 28 17.52890
 2018-Sep-30 01:23     04 53 50.261288 +30 28 17.88741
 2018-Sep-30 01:24     04 53 50.364709 +30 28 18.24598
 2018-Sep-30 01:25     04 53 50.468106 +30 28 18.60463
 2018-Sep-30 01:26     04 53 50.571479 +30 28 18.96334
 2018-Sep-30 01:27     04 53 50.674828 +30 28 19.32212
 2018-Sep-30 01:28     04 53 50.778153 +30 28 19.68097
 2018-Sep-30 01:29     04 53 50.881453 +30 28 20.03988
 2018-Sep-30 01:30     04 53 50.984729 +30 28 20.39886
 2018-Sep-30 01:31     04 53 51.087982 +30 28 20.75791
 2018-Sep-30 01:32     04 53 51.191209 +30 28 21.11701
 2018-Sep-30 01:33     04 53 51.294413 +30 28 21.47619
 2018-Sep-30 01:34     04 53 51.397591 +30 28 21.83542
 2018-Sep-30 01:35     04 53 51.500746 +30 28 22.19472
 2018-Sep-30 01:36     04 53 51.603876 +30 28 22.55407
 2018-Sep-30 01:37     04 53 51.706981 +30 28 22.91349
 2018-Sep-30 01:38     04 53 51.810062 +30 28 23.27297
 2018-Sep-30 01:39     04 53 51.913118 +30 28 23.63251
 2018-Sep-30 01:40     04 53 52.016149 +30 28 23.99210
 2018-Sep-30 01:41     04 53 52.119156 +30 28 24.35176
 2018-Sep-30 01:42     04 53 52.222138 +30 28 24.71147
 2018-Sep-30 01:43     04 53 52.325095 +30 28 25.07123
 2018-Sep-30 01:44     04 53 52.428027 +30 28 25.43106
 2018-Sep-30 01:45     04 53 52.530934 +30 28 25.79094
 2018-Sep-30 01:46     04 53 52.633817 +30 28 26.15087
 2018-Sep-30 01:47     04 53 52.736674 +30 28 26.51085
 2018-Sep-30 01:48     04 53 52.839507 +30 28 26.87089
 2018-Sep-30 01:49     04 53 52.942314 +30 28 27.23098
 2018-Sep-30 01:50     04 53 53.045096 +30 28 27.59112
 2018-Sep-30 01:51     04 53 53.147854 +30 28 27.95132
 2018-Sep-30 01:52     04 53 53.250586 +30 28 28.31156
 2018-Sep-30 01:53     04 53 53.353292 +30 28 28.67185
 2018-Sep-30 01:54     04 53 53.455974 +30 28 29.03219
 2018-Sep-30 01:55     04 53 53.558630 +30 28 29.39258
 2018-Sep-30 01:56     04 53 53.661261 +30 28 29.75301
 2018-Sep-30 01:57     04 53 53.763867 +30 28 30.11350
 2018-Sep-30 01:58     04 53 53.866448 +30 28 30.47402
 2018-Sep-30 01:59     04 53 53.969002 +30 28 30.83460
 2018-Sep-30 02:00     04 53 54.071532 +30 28 31.19521
 2018-Sep-30 02:01     04 53 54.174036 +30 28 31.55587
 2018-Sep-30 02:02     04 53 54.276515 +30 28 31.91658
 2018-Sep-30 02:03     04 53 54.378968 +30 28 32.27732
 2018-Sep-30 02:04     04 53 54.481395 +30 28 32.63811
 2018-Sep-30 02:05     04 53 54.583797 +30 28 32.99893
 2018-Sep-30 02:06     04 53 54.686173 +30 28 33.35980
 2018-Sep-30 02:07     04 53 54.788524 +30 28 33.72071
 2018-Sep-30 02:08     04 53 54.890849 +30 28 34.08165
 2018-Sep-30 02:09     04 53 54.993148 +30 28 34.44263
 2018-Sep-30 02:10     04 53 55.095422 +30 28 34.80365
 2018-Sep-30 02:11     04 53 55.197669 +30 28 35.16471
 2018-Sep-30 02:12     04 53 55.299891 +30 28 35.52580
 2018-Sep-30 02:13     04 53 55.402087 +30 28 35.88692
 2018-Sep-30 02:14     04 53 55.504258 +30 28 36.24808
 2018-Sep-30 02:15     04 53 55.606402 +30 28 36.60927
 2018-Sep-30 02:16     04 53 55.708521 +30 28 36.97050
 2018-Sep-30 02:17     04 53 55.810613 +30 28 37.33176
 2018-Sep-30 02:18     04 53 55.912680 +30 28 37.69304
 2018-Sep-30 02:19     04 53 56.014721 +30 28 38.05436
 2018-Sep-30 02:20     04 53 56.116736 +30 28 38.41571
 2018-Sep-30 02:21     04 53 56.218725 +30 28 38.77709
 2018-Sep-30 02:22     04 53 56.320687 +30 28 39.13849
 2018-Sep-30 02:23     04 53 56.422624 +30 28 39.49992
 2018-Sep-30 02:24     04 53 56.524535 +30 28 39.86138
 2018-Sep-30 02:25     04 53 56.626419 +30 28 40.22287
 2018-Sep-30 02:26     04 53 56.728278 +30 28 40.58438
 2018-Sep-30 02:27     04 53 56.830110 +30 28 40.94591
 2018-Sep-30 02:28     04 53 56.931916 +30 28 41.30747
 2018-Sep-30 02:29     04 53 57.033696 +30 28 41.66905
 2018-Sep-30 02:30     04 53 57.135450 +30 28 42.03065
 2018-Sep-30 02:31     04 53 57.237178 +30 28 42.39227
 2018-Sep-30 02:32     04 53 57.338879 +30 28 42.75392
 2018-Sep-30 02:33     04 53 57.440554 +30 28 43.11558
 2018-Sep-30 02:34     04 53 57.542203 +30 28 43.47727
 2018-Sep-30 02:35     04 53 57.643826 +30 28 43.83897
 2018-Sep-30 02:36     04 53 57.745422 +30 28 44.20069
 2018-Sep-30 02:37     04 53 57.846992 +30 28 44.56243
 2018-Sep-30 02:38     04 53 57.948536 +30 28 44.92418
 2018-Sep-30 02:39     04 53 58.050053 +30 28 45.28595
 2018-Sep-30 02:40     04 53 58.151545 +30 28 45.64773
 2018-Sep-30 02:41     04 53 58.253009 +30 28 46.00953
 2018-Sep-30 02:42     04 53 58.354448 +30 28 46.37134
 2018-Sep-30 02:43     04 53 58.455860 +30 28 46.73316
 2018-Sep-30 02:44     04 53 58.557245 +30 28 47.09499
 2018-Sep-30 02:45     04 53 58.658605 +30 28 47.45684
 2018-Sep-30 02:46     04 53 58.759938 +30 28 47.81869
 2018-Sep-30 02:47     04 53 58.861244 +30 28 48.18056
 2018-Sep-30 02:48     04 53 58.962524 +30 28 48.54243
 2018-Sep-30 02:49     04 53 59.063778 +30 28 48.90431
 2018-Sep-30 02:50     04 53 59.165005 +30 28 49.26620
 2018-Sep-30 02:51     04 53 59.266205 +30 28 49.62809
 2018-Sep-30 02:52     04 53 59.367380 +30 28 49.98999
 2018-Sep-30 02:53     04 53 59.468528 +30 28 50.35190
 2018-Sep-30 02:54     04 53 59.569649 +30 28 50.71381
 2018-Sep-30 02:55     04 53 59.670744 +30 28 51.07572
 2018-Sep-30 02:56     04 53 59.771812 +30 28 51.43763
